[Satellite]
VERSION=1.1
NAME=IRIDIUM 59 [+]
NICKNAME=IRIDIUM 59 [+]
TLE1=1 25275U 98019D   17186.24617974  .00000130  00000-0  39470-4 0  9992
TLE2=2 25275  86.3968 279.8044 0002384  91.1997 268.9472 14.34218588  8730
